satname,norad_id,inclination_deg,eccentricity,mean_motion_rev_per_day,perigee_km,apogee_km,l1,l2
STARLINK-1572,46060,53.1605,0.0001547,15.30182435,474.2072941663,476.32773752350204,1 46060U 20055AK  26204.38805949 -.00002168  00000+0 -61109-4 0  9997,2 46060  53.1605 203.8064 0001547 137.7833 222.3287 15.30182435329811
STARLINK-1573,46061,53.1591,0.0001143,15.31692834,469.97852769986184,471.5441858642216,1 46061U 20055AL  26204.32136001 -.00002536  00000+0 -69988-4 0  9990,2 46061  53.1591 202.7869 0001143 104.9801 255.1327 15.31692834329853
STARLINK-1577,46063,53.1564,0.0001189,15.31703081,469.9164805576438,471.54514132308486,1 46063U 20055AN  26204.28407301 -.00003244  00000+0 -92795-4 0  9990,2 46063  53.1564 202.9548 0001189  85.8643 274.2494 15.31703081329845
STARLINK-1583,46064,53.1576,0.000146,15.31698077,469.7457907163516,471.74566447280813,1 46064U 20055AP  26204.29812370 -.00001572  00000+0 -38884-4 0  9999,2 46064  53.1576 203.3939 0001460  85.1734 274.9434 15.31698077329832
STARLINK-1525,46066,53.047,0.0004262,15.47483954,421.19012069836026,426.9883383364004,1 46066U 20055AR  26204.88758207  .00116199  00000+0  22016-2 0  9992,2 46066  53.0470 176.0238 0004262  35.3951 324.7338 15.47483954330242
STARLINK-1536,46070,53.1583,0.0001063,15.31694919,470.0271042294853,471.48317869875973,1 46070U 20055AV  26204.36466330 -.00002462  00000+0 -67614-4 0  9997,2 46070  53.1583 190.4664 0001063  87.4655 272.6468 15.31694919330020
STARLINK-1542,46073,53.1576,0.0001148,15.31701704,469.94866519910465,471.52116619094704,1 46073U 20055AY  26204.25853094 -.00000698  00000+0 -10719-4 0  9998,2 46073  53.1576 193.9281 0001148  87.3414 272.7719 15.31701704329955
STARLINK-1549,46074,53.0479,0.0002669,15.3491245,459.35514073139984,463.00596844203847,1 46074U 20055AZ  26204.24907534  .00034171  00000+0  10013-2 0  9993,2 46074  53.0479 190.2292 0002669  60.4868 299.6399 15.34912450329983
STARLINK-1551,46075,53.1592,0.0001218,15.31694064,469.92349481664405,471.5918855631744,1 46075U 20055BA  26204.22517395 -.00000585  00000+0 -71043-5 0  9991,2 46075  53.1592 191.0516 0001218 105.9549 254.1587 15.31694064329990
STARLINK-1552,46076,53.1578,0.0001633,15.31690169,469.6508746828649,471.8877274807983,1 46076U 20055BB  26204.34163561 -.00002536  00000+0 -70008-4 0  9994,2 46076  53.1578 190.0949 0001633 114.7485 245.3687 15.31690169330001
STARLINK-1559,46077,53.0206,0.0004403,15.4240222,436.0202507544236,442.0234408340293,1 46077U 20055BC  26204.59769047  .00054299  00000+0  12379-2 0  9999,2 46077  53.0206 154.8467 0004403  61.1468 298.9978 15.42402220330475
STARLINK-1566,46079,53.1591,0.0001545,15.31691737,469.7064716080522,471.8227822107674,1 46079U 20055BE  26204.28103817 -.00000946  00000+0 -18731-4 0  9996,2 46079  53.1591 190.2312 0001545  87.3307 272.7871 15.31691737330017
STARLINK-1568,46080,53.0563,0.0002801,15.58028694,391.4661576866274,395.25955190528384,1 46080U 20055BF  26204.73268044  .00048433  00000+0  63669-3 0  9992,2 46080  53.0563  98.0727 0002801 141.8303 218.2907 15.58028694331325
STARLINK-1578,46082,53.1589,0.0001262,15.31692844,469.8969960034665,471.62565794119473,1 46082U 20055BH  26204.28541759 -.00002504  00000+0 -68978-4 0  9991,2 46082  53.1589 190.7304 0001262  95.3219 264.7926 15.31692844330002
STARLINK-1579,46083,53.16,0.0001643,15.31690661,469.64255937583675,471.8931095044345,1 46083U 20055BJ  26204.33696375 -.00002743  00000+0 -76656-4 0  9990,2 46083  53.1600 190.0208 0001643  90.3595 269.7594 15.31690661330010
STARLINK-1623,46129,53.0338,0.0007297,15.90535907,295.9085906005648,305.6558052780374,1 46129U 20057N   26204.91668980  .00251149  34288-4  80548-3 0  9996,2 46129  53.0338 302.3594 0007297 334.3231 296.7078 15.90535907  5969
STARLINK-1596,46141,53.031,0.0002622,15.67334108,364.76577823255957,368.3026838261121,1 46141U 20057AA  26204.27130316  .00075174  00000+0  68287-3 0  9994,2 46141  53.0310 294.0778 0002622 307.6288  52.4489 15.67334108328387
STARLINK-1597,46142,53.0354,0.0007369,15.88595597,301.2938085627011,311.1452131884298,1 46142U 20057AB  26204.91668980  .00242637  00000+0  82682-3 0  9994,2 46142  53.0354 342.4194 0007369 302.5159 309.6933 15.88595597  5736
STARLINK-1608,46146,53.1578,0.0003963,15.40133866,443.0095850166208,448.41816922182534,1 46146U 20057AF  26204.26987571  .00047484  00000+0  11696-2 0  9995,2 46146  53.1578  35.6368 0003963 130.7900 229.3450 15.40133866326995
STARLINK-1595,46159,53.0354,0.0005246,15.84773534,313.45023660170773,320.4747349822019,1 46159U 20057AU  26204.91668980  .00188217  00000+0  77927-3 0  9991,2 46159  53.0354 346.1121 0005246 293.8500  42.0831 15.84773534  5997
STARLINK-1598,46160,53.0407,0.0006844,15.82481982,318.8377141454448,328.0108112017915,1 46160U 20057AV  26204.91668980  .00109444  00000+0  51066-3 0  9994,2 46160  53.0407 332.6651 0006844 333.7388 325.8487 15.82481982  5898
STARLINK-1626,46167,53.0348,0.0009066,15.89096858,298.75500859559816,310.87253493496337,1 46167U 20057BC  26204.91668980  .00233428  30720-4  80511-3 0  9995,2 46167  53.0348 340.5344 0009066 314.0903  86.9806 15.89096858  5958
STARLINK-1633,46171,53.0207,0.0014807,16.16529592,219.2080493280464,238.7743988508637,1 46171U 20057BG  26204.78423266  .01403532  11739-4  90058-3 0  9993,2 46171  53.0207 297.6483 0014807 336.6022  23.4339 16.16529592329621
STARLINK-1640,46173,53.035,0.0005501,15.85115725,312.3164588937225,319.68134721426304,1 46173U 20057BJ  26204.91668980  .00203778  00000+0  82817-3 0  9991,2 46173  53.0350 347.0876 0005501 297.2199 219.8633 15.85115725  5955
STARLINK-1641,46174,53.0439,0.000468,15.69776382,356.38356590249896,362.6900285767142,1 46174U 20057BK  26204.40963553  .00088517  00000+0  72531-3 0  9994,2 46174  53.0439 345.3233 0004680 314.5163  45.5471 15.69776382327677
STARLINK-1695,46329,53.0367,0.0007973,15.89743472,297.67462336646804,308.32836681073604,1 46329U 20062E   26204.91668980  .00316539  47850-4  10537-2 0  9998,2 46329  53.0367  23.3954 0007973 289.9498 348.8284 15.89743472  5733
STARLINK-1719,46331,53.0238,0.0008555,16.13438192,231.76856350242997,243.0877955245769,1 46331U 20062G   26204.85119715  .01312457  12206-2  10898-2 0  9992,2 46331  53.0238  19.5770 0008555 294.8046  65.2099 16.13438192326319
STARLINK-1762,46342,53.1524,0.0004027,15.42200662,436.87030309835427,442.3613212132641,1 46342U 20062T   26204.08481440  .00052498  00000+0  12057-2 0  9996,2 46342  53.1524  96.5284 0004027  56.2397 303.8992 15.42200662325204
